{"type": "FeatureCollection", "features": [ {"type": "Feature", "properties": {"norad_id": 66820, "name": "KOMPSAT-7", "group": "last-30-days", "lat": -65.91601541800198, "lon": -35.29777140630415, "alt_km": 570.9518558107366, "timestamp": "2025-12-27T14:26:29.243371+00:00", "meta": {"OBJECT_NAME": "KOMPSAT-7", "OBJECT_ID": "2025-279A", "EPOCH": "2025-12-27T06:44:23.364672", "MEAN_MOTION": 15.00856737, "ECCENTRICITY": 0.00099979, "INCLINATION": 97.6456, "RA_OF_ASC_NODE": 306.8974, "ARG_OF_PERICENTER": 208.4889, "MEAN_ANOMALY": 151.579, "EPHEMERIS_TYPE": 0, "CLASSIFICATION_TYPE": "U", "NORAD_CAT_ID": 66820, "ELEMENT_SET_NO": 999, "REV_AT_EPOCH": 383, "BSTAR": 0.00026762105, "MEAN_MOTION_DOT": 3.347e-05, "MEAN_MOTION_DDOT": 0}, "tle": {"line1": "1 66820U 25279A   25361.28082598  .00003347  00000+0  26762-3 0  9998", "line2": "2 66820  97.6456 306.8974 0009997 208.4889 151.5790 15.00856737  3835"}}, "geometry": {"type": "Point", "coordinates": [-35.29777140630415, -65.91601541800198]}}, {"type": "Feature", "properties": {"norad_id": 66821, "name": "STARLINK-35966", "group": "last-30-days", "lat": -60.406285576433575, "lon": 17.59836786414094, "alt_km": 413.48886706752637, "timestamp": "2025-12-27T14:26:29.243383+00:00", "meta": {"OBJECT_NAME": "STARLINK-35966", "OBJECT_ID": "2025-280A", "EPOCH": "2025-12-27T04:06:01.931616", "MEAN_MOTION": 15.52566864, "ECCENTRICITY": 0.00031805, "INCLINATION": 70.0006, "RA_OF_ASC_NODE": 158.8889, "ARG_OF_PERICENTER": 275.3001, "MEAN_ANOMALY": 84.7823, "EPHEMERIS_TYPE": 0, "CLASSIFICATION_TYPE": "U", "NORAD_CAT_ID": 66821, "ELEMENT_SET_NO": 999, "REV_AT_EPOCH": 517, "BSTAR": 0.0022206461, "MEAN_MOTION_DOT": 0.00139102, "MEAN_MOTION_DDOT": 0}, "tle": {"line1": "1 66821U 25280A   25361.17085569  .00139102  00000+0  22206-2 0  9997", "line2": "2 66821  70.0006 158.8889 0003180 275.3001  84.7823 15.52566864  5178"}}, "geometry": {"type": "Point", "coordinates": [17.59836786414094, -60.406285576433575]}}, {"type": "Feature", "properties": {"norad_id": 66822, "name": "STARLINK-35958", "group": "last-30-days", "lat": -61.74585584494016, "lon": 20.37483907576563, "alt_km": 413.379808774318, "timestamp": "2025-12-27T14:26:29.243393+00:00", "meta": {"OBJECT_NAME": "STARLINK-35958", "OBJECT_ID": "2025-280B", "EPOCH": "2025-12-27T04:05:32.260128", "MEAN_MOTION": 15.52559312, "ECCENTRICITY": 0.00033532, "INCLINATION": 70.0002, "RA_OF_ASC_NODE": 158.8881, "ARG_OF_PERICENTER": 272.9886, "MEAN_ANOMALY": 87.0917, "EPHEMERIS_TYPE": 0, "CLASSIFICATION_TYPE": "U", "NORAD_CAT_ID": 66822, "ELEMENT_SET_NO": 999, "REV_AT_EPOCH": 517, "BSTAR": 0.0020775124, "MEAN_MOTION_DOT": 0.00129941, "MEAN_MOTION_DDOT": 0}, "tle": {"line1": "1 66822U 25280B   25361.17051227  .00129941  00000+0  20775-2 0  9991", "line2": "2 66822  70.0002 158.8881 0003353 272.9886  87.0917 15.52559312  5173"}}, "geometry": {"type": "Point", "coordinates": [20.37483907576563, -61.74585584494016]}}, {"type": "Feature", "properties": {"norad_id": 66823, "name": "STARLINK-35957", "group": "last-30-days", "lat": -63.04977792777016, "lon": 23.460225134630313, "alt_km": 413.3699592517978, "timestamp": "2025-12-27T14:26:29.243408+00:00", "meta": {"OBJECT_NAME": "STARLINK-35957", "OBJECT_ID": "2025-280C", "EPOCH": "2025-12-27T04:05:02.659488", "MEAN_MOTION": 15.52567218, "ECCENTRICITY": 0.00032617, "INCLINATION": 70.0003, "RA_OF_ASC_NODE": 158.8863, "ARG_OF_PERICENTER": 273.4789, "MEAN_ANOMALY": 86.6025, "EPHEMERIS_TYPE": 0, "CLASSIFICATION_TYPE": "U", "NORAD_CAT_ID": 66823, "ELEMENT_SET_NO": 999, "REV_AT_EPOCH": 517, "BSTAR": 0.0023303245, "MEAN_MOTION_DOT": 0.00146113, "MEAN_MOTION_DDOT": 0}, "tle": {"line1": "1 66823U 25280C   25361.17016967  .00146113  00000+0  23303-2 0  9994", "line2": "2 66823  70.0003 158.8863 0003261 273.4789  86.6025 15.52567218  5170"}}, "geometry": {"type": "Point", "coordinates": [23.460225134630313, -63.04977792777016]}}, {"type": "Feature", "properties": {"norad_id": 66824, "name": "STARLINK-35896", "group": "last-30-days", "lat": -64.25516871679612, "lon": 26.75343195083747, "alt_km": 413.5355633056515, "timestamp": "2025-12-27T14:26:29.243418+00:00", "meta": {"OBJECT_NAME": "STARLINK-35896", "OBJECT_ID": "2025-280D", "EPOCH": "2025-12-27T04:04:32.966400", "MEAN_MOTION": 15.52550684, "ECCENTRICITY": 0.00030855, "INCLINATION": 70.0003, "RA_OF_ASC_NODE": 158.8852, "ARG_OF_PERICENTER": 275.0326, "MEAN_ANOMALY": 85.0509, "EPHEMERIS_TYPE": 0, "CLASSIFICATION_TYPE": "U", "NORAD_CAT_ID": 66824, "ELEMENT_SET_NO": 999, "REV_AT_EPOCH": 517, "BSTAR": 0.0023580453, "MEAN_MOTION_DOT": 0.00147794, "MEAN_MOTION_DDOT": 0}, "tle": {"line1": "1 66824U 25280D   25361.16982600  .00147794  00000+0  23580-2 0  9993", "line2": "2 66824  70.0003 158.8852 0003085 275.0326  85.0509 15.52550684  5177"}}, "geometry": {"type": "Point", "coordinates": [26.75343195083747, -64.25516871679612]}}, {"type": "Feature", "properties": {"norad_id": 66825, "name": "STARLINK-35476", "group": "last-30-days", "lat": -65.39665818926134, "lon": 30.3939762291261, "alt_km": 413.3777470556133, "timestamp": "2025-12-27T14:26:29.243429+00:00", "meta": {"OBJECT_NAME": "STARLINK-35476", "OBJECT_ID": "2025-280E", "EPOCH": "2025-12-27T04:04:03.266400", "MEAN_MOTION": 15.5255596, "ECCENTRICITY": 0.00032671, "INCLINATION": 70.0003, "RA_OF_ASC_NODE": 158.8831, "ARG_OF_PERICENTER": 273.9441, "MEAN_ANOMALY": 86.1373, "EPHEMERIS_TYPE": 0, "CLASSIFICATION_TYPE": "U", "NORAD_CAT_ID": 66825, "ELEMENT_SET_NO": 999, "REV_AT_EPOCH": 517, "BSTAR": 0.0023693101, "MEAN_MOTION_DOT": 0.00148546, "MEAN_MOTION_DDOT": 0}, "tle": {"line1": "1 66825U 25280E   25361.16948225  .00148546  00000+0  23693-2 0  9990", "line2": "2 66825  70.0003 158.8831 0003267 273.9441  86.1373 15.52555960  5175"}}, "geometry": {"type": "Point", "coordinates": [30.3939762291261, -65.39665818926134]}}, {"type": "Feature", "properties": {"norad_id": 66826, "name": "STARLINK-35898", "group": "last-30-days", "lat": -66.4529128945592, "lon": 34.394686073360155, "alt_km": 413.4658699092597, "timestamp": "2025-12-27T14:26:29.243439+00:00", "meta": {"OBJECT_NAME": "STARLINK-35898", "OBJECT_ID": "2025-280F", "EPOCH": "2025-12-27T04:03:34.756128", "MEAN_MOTION": 15.52614823, "ECCENTRICITY": 0.00028067, "INCLINATION": 70.0003, "RA_OF_ASC_NODE": 158.8819, "ARG_OF_PERICENTER": 272.483, "MEAN_ANOMALY": 87.6035, "EPHEMERIS_TYPE": 0, "CLASSIFICATION_TYPE": "U", "NORAD_CAT_ID": 66826, "ELEMENT_SET_NO": 999, "REV_AT_EPOCH": 517, "BSTAR": 0.0024705604, "MEAN_MOTION_DOT": 0.00155357, "MEAN_MOTION_DDOT": 0}, "tle": {"line1": "1 66826U 25280F   25361.16915227  .00155357  00000+0  24706-2 0  9991", "line2": "2 66826  70.0003 158.8819 0002806 272.4830  87.6035 15.52614823  5171"}}, "geometry": {"type": "Point", "coordinates": [34.394686073360155, -66.4529128945592]}}, {"type": "Feature", "properties": {"norad_id": 66827, "name": "STARLINK-35959", "group": "last-30-days", "lat": -67.38442402275541, "lon": 38.65978067121688, "alt_km": 413.3344342223472, "timestamp": "2025-12-27T14:26:29.243449+00:00", "meta": {"OBJECT_NAME": "STARLINK-35959", "OBJECT_ID": "2025-280G", "EPOCH": "2025-12-27T04:03:04.396896", "MEAN_MOTION": 15.52592671, "ECCENTRICITY": 0.00032004, "INCLINATION": 70.0004, "RA_OF_ASC_NODE": 158.8806, "ARG_OF_PERICENTER": 278.2881, "MEAN_ANOMALY": 81.7943, "EPHEMERIS_TYPE": 0, "CLASSIFICATION_TYPE": "U", "NORAD_CAT_ID": 66827, "ELEMENT_SET_NO": 999, "REV_AT_EPOCH": 517, "BSTAR": 0.0024005346, "MEAN_MOTION_DOT": 0.00150745, "MEAN_MOTION_DDOT": 0}, "tle": {"line1": "1 66827U 25280G   25361.16880089  .00150745  00000+0  24005-2 0  9997", "line2": "2 66827  70.0004 158.8806 0003200 278.2881  81.7943 15.52592671  5177"}}, "geometry": {"type": "Point", "coordinates": [38.65978067121688, -67.38442402275541]}}, {"type": "Feature", "properties": {"norad_id": 66828, "name": "STARLINK-35982", "group": "last-30-days", "lat": -68.83346321774346, "lon": 47.853250443979235, "alt_km": 413.46760302458733, "timestamp": "2025-12-27T14:26:29.243459+00:00", "meta": {"OBJECT_NAME": "STARLINK-35982", "OBJECT_ID": "2025-280H", "EPOCH": "2025-12-27T04:02:05.439264", "MEAN_MOTION": 15.52538527, "ECCENTRICITY": 0.00031976, "INCLINATION": 70.0003, "RA_OF_ASC_NODE": 158.8781, "ARG_OF_PERICENTER": 275.6823, "MEAN_ANOMALY": 84.3999, "EPHEMERIS_TYPE": 0, "CLASSIFICATION_TYPE": "U", "NORAD_CAT_ID": 66828, "ELEMENT_SET_NO": 999, "REV_AT_EPOCH": 517, "BSTAR": 0.0022656765, "MEAN_MOTION_DOT": 0.00141831, "MEAN_MOTION_DDOT": 0}, "tle": {"line1": "1 66828U 25280H   25361.16811851  .00141831  00000+0  22657-2 0  9996", "line2": "2 66828  70.0003 158.8781 0003197 275.6823  84.3999 15.52538527  5171"}}, "geometry": {"type": "Point", "coordinates": [47.853250443979235, -68.83346321774346]}}, {"type": "Feature", "properties": {"norad_id": 66829, "name": "STARLINK-36084", "group": "last-30-days", "lat": -68.1014297934522, "lon": 42.66466510030244, "alt_km": 413.6986287108384, "timestamp": "2025-12-27T14:26:29.243471+00:00", "meta": {"OBJECT_NAME": "STARLINK-36084", "OBJECT_ID": "2025-280J", "EPOCH": "2025-12-26T21:51:29.345184", "MEAN_MOTION": 15.52482745, "ECCENTRICITY": 0.0002994, "INCLINATION": 70.0004, "RA_OF_ASC_NODE": 159.5847, "ARG_OF_PERICENTER": 276.2035, "MEAN_ANOMALY": 83.881, "EPHEMERIS_TYPE": 0, "CLASSIFICATION_TYPE": "U", "NORAD_CAT_ID": 66829, "ELEMENT_SET_NO": 999, "REV_AT_EPOCH": 513, "BSTAR": 0.0017316, "MEAN_MOTION_DOT": 0.00107671, "MEAN_MOTION_DDOT": 0}, "tle": {"line1": "1 66829U 25280J   25360.91075631  .00107671  00000+0  17316-2 0  9997", "line2": "2 66829  70.0004 159.5847 0002994 276.2035  83.8810 15.52482745  5132"}}, "geometry": {"type": "Point", "coordinates": [42.66466510030244, -68.1014297934522]}}]}